[{"OBJECT_NAME":"STARLINK-2421","OBJECT_ID":"2021-027G","EPOCH":"2026-03-09T13:27:37.697472","MEAN_MOTION":15.3018961,"ECCENTRICITY":0.0001338,"INCLINATION":53.1619,"RA_OF_ASC_NODE":155.5447,"ARG_OF_PERICENTER":74.38,"MEAN_ANOMALY":285.7349,"EPHEMERIS_TYPE":0,"CLASSIFICATION_TYPE":"U","NORAD_CAT_ID":48098,"ELEMENT_SET_NO":999,"REV_AT_EPOCH":27263,"BSTAR":-3.0297e-5,"MEAN_MOTION_DOT":-1.256e-5,"MEAN_MOTION_DDOT":0},{"OBJECT_NAME":"JINJUSAT-1B","OBJECT_ID":"2025-052A","EPOCH":"2026-03-09T15:55:38.242848","MEAN_MOTION":15.30194857,"ECCENTRICITY":0.00055504,"INCLINATION":97.4113,"RA_OF_ASC_NODE":325.4613,"ARG_OF_PERICENTER":82.193,"MEAN_ANOMALY":277.9941,"EPHEMERIS_TYPE":0,"CLASSIFICATION_TYPE":"U","NORAD_CAT_ID":63210,"ELEMENT_SET_NO":999,"REV_AT_EPOCH":5486,"BSTAR":0.00068430401,"MEAN_MOTION_DOT":0.00019955,"MEAN_MOTION_DDOT":0}]
